[{"OBJECT_NAME":"GPS BIIF-7  (PRN 09)","OBJECT_ID":"2014-045A","EPOCH":"2026-04-05T06:11:39.428736","MEAN_MOTION":2.00553703,"ECCENTRICITY":0.00314007,"INCLINATION":55.3047,"RA_OF_ASC_NODE":91.3685,"ARG_OF_PERICENTER":119.7721,"MEAN_ANOMALY":240.5476,"EPHEMERIS_TYPE":0,"CLASSIFICATION_TYPE":"U","NORAD_CAT_ID":40105,"ELEMENT_SET_NO":999,"REV_AT_EPOCH":8461,"BSTAR":0,"MEAN_MOTION_DOT":2.0e-8,"MEAN_MOTION_DDOT":0},{"OBJECT_NAME":"GPS BIIF-8  (PRN 03)","OBJECT_ID":"2014-068A","EPOCH":"2026-04-05T03:12:35.771904","MEAN_MOTION":2.00571865,"ECCENTRICITY":0.00643004,"INCLINATION":56.9408,"RA_OF_ASC_NODE":33.7696,"ARG_OF_PERICENTER":68.3893,"MEAN_ANOMALY":292.2824,"EPHEMERIS_TYPE":0,"CLASSIFICATION_TYPE":"U","NORAD_CAT_ID":40294,"ELEMENT_SET_NO":999,"REV_AT_EPOCH":8374,"BSTAR":0,"MEAN_MOTION_DOT":-8.3e-7,"MEAN_MOTION_DDOT":0},{"OBJECT_NAME":"GPS BIIF-9  (PRN 26)","OBJECT_ID":"2015-013A","EPOCH":"2026-04-05T18:22:08.688576","MEAN_MOTION":2.00555754,"ECCENTRICITY":0.0108822,"INCLINATION":53.1789,"RA_OF_ASC_NODE":207.1723,"ARG_OF_PERICENTER":39.9432,"MEAN_ANOMALY":320.8559,"EPHEMERIS_TYPE":0,"CLASSIFICATION_TYPE":"U","NORAD_CAT_ID":40534,"ELEMENT_SET_NO":999,"REV_AT_EPOCH":8037,"BSTAR":0,"MEAN_MOTION_DOT":6.0e-8,"MEAN_MOTION_DDOT":0},{"OBJECT_NAME":"GPS BIIF-10 (PRN 08)","OBJECT_ID":"2015-033A","EPOCH":"2026-04-05T10:14:25.052640","MEAN_MOTION":2.00560101,"ECCENTRICITY":0.0114939,"INCLINATION":54.0409,"RA_OF_ASC_NODE":270.0842,"ARG_OF_PERICENTER":29.5944,"MEAN_ANOMALY":331.0235,"EPHEMERIS_TYPE":0,"CLASSIFICATION_TYPE":"U","NORAD_CAT_ID":40730,"ELEMENT_SET_NO":999,"REV_AT_EPOCH":7853,"BSTAR":0,"MEAN_MOTION_DOT":-1.4e-7,"MEAN_MOTION_DDOT":0},{"OBJECT_NAME":"GPS BIIF-11 (PRN 10)","OBJECT_ID":"2015-062A","EPOCH":"2026-04-04T23:40:27.177888","MEAN_MOTION":2.00567188,"ECCENTRICITY":0.0111285,"INCLINATION":56.9136,"RA_OF_ASC_NODE":33.6315,"ARG_OF_PERICENTER":231.593,"MEAN_ANOMALY":127.395,"EPHEMERIS_TYPE":0,"CLASSIFICATION_TYPE":"U","NORAD_CAT_ID":41019,"ELEMENT_SET_NO":999,"REV_AT_EPOCH":7636,"BSTAR":0,"MEAN_MOTION_DOT":-8.4e-7,"MEAN_MOTION_DDOT":0},{"OBJECT_NAME":"GPS BIIF-12 (PRN 32)","OBJECT_ID":"2016-007A","EPOCH":"2026-04-05T01:45:21.101760","MEAN_MOTION":2.00555323,"ECCENTRICITY":0.0095997,"INCLINATION":55.4776,"RA_OF_ASC_NODE":92.3566,"ARG_OF_PERICENTER":246.7403,"MEAN_ANOMALY":112.2545,"EPHEMERIS_TYPE":0,"CLASSIFICATION_TYPE":"U","NORAD_CAT_ID":41328,"ELEMENT_SET_NO":999,"REV_AT_EPOCH":7437,"BSTAR":0,"MEAN_MOTION_DOT":3.0e-8,"MEAN_MOTION_DDOT":0},{"OBJECT_NAME":"GPS BIII-1  (PRN 04)","OBJECT_ID":"2018-109A","EPOCH":"2026-04-05T21:06:25.661952","MEAN_MOTION":2.00558485,"ECCENTRICITY":0.0038017,"INCLINATION":55.6373,"RA_OF_ASC_NODE":95.0375,"ARG_OF_PERICENTER":198.9014,"MEAN_ANOMALY":275.9572,"EPHEMERIS_TYPE":0,"CLASSIFICATION_TYPE":"U","NORAD_CAT_ID":43873,"ELEMENT_SET_NO":999,"REV_AT_EPOCH":5362,"BSTAR":0,"MEAN_MOTION_DOT":9.0e-8,"MEAN_MOTION_DDOT":0},{"OBJECT_NAME":"GPS BIII-2  (PRN 18)","OBJECT_ID":"2019-056A","EPOCH":"2026-04-05T02:21:03.997152","MEAN_MOTION":2.00569081,"ECCENTRICITY":0.00587645,"INCLINATION":55.6701,"RA_OF_ASC_NODE":334.049,"ARG_OF_PERICENTER":197.6004,"MEAN_ANOMALY":334.4346,"EPHEMERIS_TYPE":0,"CLASSIFICATION_TYPE":"U","NORAD_CAT_ID":44506,"ELEMENT_SET_NO":999,"REV_AT_EPOCH":4860,"BSTAR":0,"MEAN_MOTION_DOT":-9.0e-7,"MEAN_MOTION_DDOT":0},{"OBJECT_NAME":"GPS BIII-3  (PRN 23)","OBJECT_ID":"2020-041A","EPOCH":"2026-04-05T16:36:27.777024","MEAN_MOTION":2.00560346,"ECCENTRICITY":0.00618,"INCLINATION":56.6261,"RA_OF_ASC_NODE":31.7566,"ARG_OF_PERICENTER":205.1302,"MEAN_ANOMALY":336.9671,"EPHEMERIS_TYPE":0,"CLASSIFICATION_TYPE":"U","NORAD_CAT_ID":45854,"ELEMENT_SET_NO":999,"REV_AT_EPOCH":4258,"BSTAR":0,"MEAN_MOTION_DOT":-8.3e-7,"MEAN_MOTION_DDOT":0},{"OBJECT_NAME":"GPS BIII-4  (PRN 14)","OBJECT_ID":"2020-078A","EPOCH":"2026-04-05T17:05:03.802848","MEAN_MOTION":2.00565249,"ECCENTRICITY":0.0069971,"INCLINATION":53.9938,"RA_OF_ASC_NODE":213.7167,"ARG_OF_PERICENTER":205.1796,"MEAN_ANOMALY":325.3931,"EPHEMERIS_TYPE":0,"CLASSIFICATION_TYPE":"U","NORAD_CAT_ID":46826,"ELEMENT_SET_NO":999,"REV_AT_EPOCH":4005,"BSTAR":0,"MEAN_MOTION_DOT":6.0e-8,"MEAN_MOTION_DDOT":0},{"OBJECT_NAME":"GPS BIII-5  (PRN 11)","OBJECT_ID":"2021-054A","EPOCH":"2026-03-28T01:21:33.319296","MEAN_MOTION":2.00573996,"ECCENTRICITY":0.0023817,"INCLINATION":55.2101,"RA_OF_ASC_NODE":335.7223,"ARG_OF_PERICENTER":231.1961,"MEAN_ANOMALY":354.6747,"EPHEMERIS_TYPE":0,"CLASSIFICATION_TYPE":"U","NORAD_CAT_ID":48859,"ELEMENT_SET_NO":999,"REV_AT_EPOCH":3512,"BSTAR":0,"MEAN_MOTION_DOT":-8.8e-7,"MEAN_MOTION_DDOT":0},{"OBJECT_NAME":"GPS BIII-6  (PRN 28)","OBJECT_ID":"2023-009A","EPOCH":"2026-03-28T04:24:38.672352","MEAN_MOTION":2.00547447,"ECCENTRICITY":0.00053805,"INCLINATION":55.1104,"RA_OF_ASC_NODE":151.7031,"ARG_OF_PERICENTER":326.6502,"MEAN_ANOMALY":28.0595,"EPHEMERIS_TYPE":0,"CLASSIFICATION_TYPE":"U","NORAD_CAT_ID":55268,"ELEMENT_SET_NO":999,"REV_AT_EPOCH":2361,"BSTAR":0,"MEAN_MOTION_DOT":0,"MEAN_MOTION_DDOT":0},{"OBJECT_NAME":"GPS BIII-7  (PRN 01)","OBJECT_ID":"2024-242A","EPOCH":"2026-04-04T07:21:38.597472","MEAN_MOTION":2.0057043,"ECCENTRICITY":0.00165831,"INCLINATION":54.879,"RA_OF_ASC_NODE":337.1781,"ARG_OF_PERICENTER":1.2127,"MEAN_ANOMALY":180.4973,"EPHEMERIS_TYPE":0,"CLASSIFICATION_TYPE":"U","NORAD_CAT_ID":62339,"ELEMENT_SET_NO":999,"REV_AT_EPOCH":977,"BSTAR":0,"MEAN_MOTION_DOT":-9.5e-7,"MEAN_MOTION_DDOT":0},{"OBJECT_NAME":"GPS BIII-8  (PRN 21)","OBJECT_ID":"2025-116A","EPOCH":"2026-04-05T19:12:28.988928","MEAN_MOTION":2.00551286,"ECCENTRICITY":0.0008992,"INCLINATION":55.1886,"RA_OF_ASC_NODE":34.0435,"ARG_OF_PERICENTER":332.1499,"MEAN_ANOMALY":31.6602,"EPHEMERIS_TYPE":0,"CLASSIFICATION_TYPE":"U","NORAD_CAT_ID":64202,"ELEMENT_SET_NO":999,"REV_AT_EPOCH":642,"BSTAR":0,"MEAN_MOTION_DOT":-8.2e-7,"MEAN_MOTION_DDOT":0},{"OBJECT_NAME":"GPS BIII-9  (PRN 20)","OBJECT_ID":"2026-017A","EPOCH":"2026-04-04T09:49:34.959360","MEAN_MOTION":2.00553521,"ECCENTRICITY":0.00244361,"INCLINATION":55.0405,"RA_OF_ASC_NODE":91.7145,"ARG_OF_PERICENTER":250.4586,"MEAN_ANOMALY":109.2865,"EPHEMERIS_TYPE":0,"CLASSIFICATION_TYPE":"U","NORAD_CAT_ID":67588,"ELEMENT_SET_NO":999,"REV_AT_EPOCH":43013,"BSTAR":0,"MEAN_MOTION_DOT":1.0e-8,"MEAN_MOTION_DDOT":0}]
